CCSDS_OMM_VERS,COMMENT,CREATION_DATE,ORIGINATOR,OBJECT_NAME,OBJECT_ID,CENTER_NAME,REF_FRAME,TIME_SYSTEM,MEAN_ELEMENT_THEORY,EPOCH,MEAN_MOTION,ECCENTRICITY,INCLINATION,RA_OF_ASC_NODE,ARG_OF_PERICENTER,MEAN_ANOMALY,EPHEMERIS_TYPE,CLASSIFICATION_TYPE,NORAD_CAT_ID,ELEMENT_SET_NO,REV_AT_EPOCH,BSTAR,MEAN_MOTION_DOT,MEAN_MOTION_DDOT,SEMIMAJOR_AXIS,PERIOD,APOAPSIS,PERIAPSIS,OBJECT_TYPE,RCS_SIZE,COUNTRY_CODE,LAUNCH_DATE,SITE,DECAY_DATE,FILE,GP_ID,TLE_LINE0,TLE_LINE1,TLE_LINE2
"3.0","GENERATED VIA SPACE-TRACK.ORG API","2026-03-23T06:38:30","18 SPCS","DMSP 5D-2 F13 DEB","1995-015JH","EARTH","TEME","UTC","SGP4","2026-03-22T09:13:40.674720","14.52140149","0.00240295","98.5568","139.2386","83.8381","276.5550","0","U","42315","999","55526","0.00234867550000","0.00009516","0.0000000000000","7096.804","99.164","735.722","701.616","DEBRIS","SMALL","US","1995-03-24","AFWTR","","5094924","316813597","0 DMSP 5D-2 F13 DEB","1 42315U 95015JH  26081.38449855  .00009516  00000-0  23487-2 0  9995","2 42315  98.5568 139.2386 0024030  83.8381 276.5550 14.52140149555264"
"3.0","GENERATED VIA SPACE-TRACK.ORG API","2026-03-23T06:38:30","18 SPCS","DMSP 5D-2 F13 DEB","1995-015JQ","EARTH","TEME","UTC","SGP4","2026-03-22T10:31:20.116128","14.76755554","0.00221336","98.7593","144.8714","247.2190","112.6679","0","U","42322","999","57001","0.00542379760000","0.00038306","0.0000000000000","7017.721","97.511","655.119","624.053","DEBRIS","SMALL","US","1995-03-24","AFWTR","","5094924","316813599","0 DMSP 5D-2 F13 DEB","1 42322U 95015JQ  26081.43842727  .00038306  00000-0  54238-2 0  9991","2 42322  98.7593 144.8714 0022134 247.2190 112.6679 14.76755554570016"
"3.0","GENERATED VIA SPACE-TRACK.ORG API","2026-03-25T17:29:05","18 SPCS","NOAA 16 DEB","2000-055QD","EARTH","TEME","UTC","SGP4","2026-03-25T05:07:20.557632","14.72725965","0.00354583","98.8048","257.3125","227.7482","132.0714","0","U","42337","999","52980","0.00279413670000","0.00017995","0.0000000000000","7030.516","97.778","677.310","627.452","DEBRIS","SMALL","US","2000-09-21","AFWTR","","5096884","317015195","0 NOAA 16 DEB","1 42337U 00055QD  26084.21343238  .00017995  00000-0  27941-2 0  9991","2 42337  98.8048 257.3125 0035458 227.7482 132.0714 14.72725965529800"
"3.0","GENERATED VIA SPACE-TRACK.ORG API","2026-03-25T17:29:05","18 SPCS","NOAA 16 DEB","2000-055QH","EARTH","TEME","UTC","SGP4","2026-03-25T15:18:09.474624","14.75395174","0.00263675","98.7217","230.5285","251.7989","108.0347","0","U","42341","999","52848","0.00395175460000","0.00027020","0.0000000000000","7022.034","97.601","662.414","625.384","DEBRIS","SMALL","US","2000-09-21","AFWTR","","5096884","317015697","0 NOAA 16 DEB","1 42341U 00055QH  26084.63760966  .00027020  00000-0  39518-2 0  9996","2 42341  98.7217 230.5285 0026368 251.7989 108.0347 14.75395174528487"
"3.0","GENERATED VIA SPACE-TRACK.ORG API","2026-03-25T17:29:05","18 SPCS","NOAA 16 DEB","2000-055QL","EARTH","TEME","UTC","SGP4","2026-03-25T07:34:07.943808","14.58166966","0.00294852","98.7292","217.0120","239.6135","120.2147","0","U","42344","999","51732","0.00241456070000","0.00011164","0.0000000000000","7077.236","98.754","719.968","678.234","DEBRIS","SMALL","US","2000-09-21","AFWTR","","5096884","317015197","0 NOAA 16 DEB","1 42344U 00055QL  26084.31536972  .00011164  00000-0  24146-2 0  9995","2 42344  98.7292 217.0120 0029485 239.6135 120.2147 14.58166966517323"
"3.0","GENERATED VIA SPACE-TRACK.ORG API","2026-03-21T17:23:35","18 SPCS","NOAA 16 DEB","2000-055QM","EARTH","TEME","UTC","SGP4","2026-03-21T03:25:54.937344","14.84059977","0.00232041","98.7134","226.2662","256.0366","103.8265","0","U","42345","999","51743","0.00739610480000","0.00062432","0.0000000000000","6994.675","97.031","632.771","600.309","DEBRIS","SMALL","US","2000-09-21","AFWTR","","5094800","316715997","0 NOAA 16 DEB","1 42345U 00055QM  26080.14299696  .00062432  00000-0  73961-2 0  9995","2 42345  98.7134 226.2662 0023204 256.0366 103.8265 14.84059977517436"
"3.0","GENERATED VIA SPACE-TRACK.ORG API","2026-03-25T17:29:05","18 SPCS","NOAA 16 DEB","2000-055QP","EARTH","TEME","UTC","SGP4","2026-03-25T11:43:59.376288","14.52631677","0.00344294","98.9699","277.2653","8.0848","352.0894","0","U","42347","999","53038","0.00153627540000","0.00006291","0.0000000000000","7095.203","99.130","741.496","692.640","DEBRIS","SMALL","US","2000-09-21","AFWTR","","5096884","317015198","0 NOAA 16 DEB","1 42347U 00055QP  26084.48888167  .00006291  00000-0  15363-2 0  9998","2 42347  98.9699 277.2653 0034429   8.0848 352.0894 14.52631677530386"
"3.0","GENERATED VIA SPACE-TRACK.ORG API","2026-03-25T17:29:05","18 SPCS","NOAA 16 DEB","2000-055QT","EARTH","TEME","UTC","SGP4","2026-03-25T14:15:55.002240","14.61810002","0.00328047","98.6915","218.6124","197.0022","163.0081","0","U","42351","999","52124","0.00280379390000","0.00014079","0.0000000000000","7065.473","98.508","710.516","664.160","DEBRIS","SMALL","US","2000-09-21","AFWTR","","5096884","317015200","0 NOAA 16 DEB","1 42351U 00055QT  26084.59438660  .00014079  00000-0  28038-2 0  9990","2 42351  98.6915 218.6124 0032805 197.0022 163.0081 14.61810002521244"
"3.0","GENERATED VIA SPACE-TRACK.ORG API","2026-03-25T17:29:05","18 SPCS","NOAA 16 DEB","2000-055QY","EARTH","TEME","UTC","SGP4","2026-03-25T07:10:45.508512","14.58050848","0.00208238","98.9095","254.5640","100.4738","259.8806","0","U","42356","999","52538","0.00246246750000","0.00011323","0.0000000000000","7077.612","98.762","714.215","684.738","DEBRIS","SMALL","US","2000-09-21","AFWTR","","5096884","317015702","0 NOAA 16 DEB","1 42356U 00055QY  26084.29913783  .00011323  00000-0  24625-2 0  9993","2 42356  98.9095 254.5640 0020824 100.4738 259.8806 14.58050848525381"
"3.0","GENERATED VIA SPACE-TRACK.ORG API","2026-03-25T17:29:05","18 SPCS","NOAA 16 DEB","2000-055QZ","EARTH","TEME","UTC","SGP4","2026-03-25T07:51:50.875488","14.79230485","0.00078826","98.7996","224.7101","259.5930","100.4391","0","U","42357","999","52533","0.00513082280000","0.00038277","0.0000000000000","7009.891","97.348","637.282","626.231","DEBRIS","SMALL","US","2000-09-21","AFWTR","","5096884","317015202","0 NOAA 16 DEB","1 42357U 00055QZ  26084.32767217  .00038277  00000-0  51308-2 0  9992","2 42357  98.7996 224.7101 0007883 259.5930 100.4391 14.79230485525336"
"3.0","GENERATED VIA SPACE-TRACK.ORG API","2026-03-25T17:29:05","18 SPCS","NOAA 16 DEB","2000-055RA","EARTH","TEME","UTC","SGP4","2026-03-25T02:31:07.686048","14.62189449","0.00298386","98.8525","221.1174","211.3613","148.5808","0","U","42358","999","48877","0.00414330750000","0.00021000","0.0000000000000","7064.250","98.482","707.194","665.037","DEBRIS","SMALL","US","2000-09-21","AFWTR","","5096884","317015703","0 NOAA 16 DEB","1 42358U 00055RA  26084.10495007  .00021000  00000-0  41433-2 0  9998","2 42358  98.8525 221.1174 0029839 211.3613 148.5808 14.62189449488773"
"3.0","GENERATED VIA SPACE-TRACK.ORG API","2026-03-25T17:29:05","18 SPCS","NOAA 16 DEB","2000-055RB","EARTH","TEME","UTC","SGP4","2026-03-25T06:48:29.499264","14.46241379","0.00146028","98.9694","258.0730","77.6116","282.6708","0","U","42359","999","51828","0.00168015000000","0.00005979","0.0000000000000","7116.088","99.568","748.345","727.562","DEBRIS","SMALL","US","2000-09-21","AFWTR","","5096884","317015203","0 NOAA 16 DEB","1 42359U 00055RB  26084.28367476  .00005979  00000-0  16802-2 0  9995","2 42359  98.9694 258.0730 0014603  77.6116 282.6708 14.46241379518285"
"3.0","GENERATED VIA SPACE-TRACK.ORG API","2026-03-24T04:52:42","18 SPCS","NOAA 16 DEB","2000-055RH","EARTH","TEME","UTC","SGP4","2026-03-23T12:02:01.705632","14.51937882","0.00375856","98.9813","287.8932","17.8190","342.4312","0","U","42365","999","52627","0.00189031940000","0.00007652","0.0000000000000","7097.463","99.178","746.004","692.652","DEBRIS","SMALL","US","2000-09-21","AFWTR","","5095836","316897830","0 NOAA 16 DEB","1 42365U 00055RH  26082.50140863  .00007652  00000-0  18903-2 0  9998","2 42365  98.9813 287.8932 0037586  17.8190 342.4312 14.51937882526273"
"3.0","GENERATED VIA SPACE-TRACK.ORG API","2026-03-24T10:20:52","18 SPCS","NOAA 16 DEB","2000-055RK","EARTH","TEME","UTC","SGP4","2026-03-24T04:17:22.831008","14.51683804","0.00110725","98.8869","206.2512","339.1861","20.8880","0","U","42367","999","51511","0.00408431480000","0.00016391","0.0000000000000","7098.291","99.195","728.016","712.297","DEBRIS","SMALL","US","2000-09-21","AFWTR","","5095853","316930513","0 NOAA 16 DEB","1 42367U 00055RK  26083.17873647  .00016391  00000-0  40843-2 0  9995","2 42367  98.8869 206.2512 0011073 339.1861  20.8880 14.51683804515112"
"3.0","GENERATED VIA SPACE-TRACK.ORG API","2026-03-24T04:52:42","18 SPCS","NOAA 16 DEB","2000-055RP","EARTH","TEME","UTC","SGP4","2026-03-23T12:37:55.798464","14.59579996","0.00324078","99.0690","7.8971","332.0181","27.9273","0","U","42371","999","53007","0.00303709150000","0.00014520","0.0000000000000","7072.667","98.659","717.453","671.612","DEBRIS","SMALL","US","2000-09-21","AFWTR","","5095836","316898332","0 NOAA 16 DEB","1 42371U 00055RP  26082.52634026  .00014520  00000-0  30371-2 0  9991","2 42371  99.0690   7.8971 0032408 332.0181  27.9273 14.59579996530078"
"3.0","GENERATED VIA SPACE-TRACK.ORG API","2026-03-24T04:52:42","18 SPCS","NOAA 16 DEB","2000-055RS","EARTH","TEME","UTC","SGP4","2026-03-23T20:33:48.525696","14.74866831","0.00089198","98.8492","227.0389","263.2505","96.7687","0","U","42374","999","51616","0.00566361370000","0.00038153","0.0000000000000","7023.711","97.636","651.841","639.311","DEBRIS","SMALL","US","2000-09-21","AFWTR","","5095836","316898333","0 NOAA 16 DEB","1 42374U 00055RS  26082.85681164  .00038153  00000-0  56636-2 0  9995","2 42374  98.8492 227.0389 0008920 263.2505  96.7687 14.74866831516165"
